{
  "type": "FeatureCollection",
  "features": [
    {
      "type": "Feature",
      "properties": {
        "norad_id": 30716,
        "name": "FENGYUN 1C DEB",
        "group": "fengyun-1c-debris",
        "lat": -78.14805452982908,
        "lon": -69.50441622700131,
        "alt_km": 653.0759731474755,
        "timestamp": "2025-12-02T13:52:17.540428+00:00",
        "meta_object_name": "FENGYUN 1C DEB",
        "meta_object_id": "1999-025ASA",
        "meta_epoch": "2025-12-02T04:50:42.135648",
        "meta_mean_motion": 14.78352656,
        "meta_eccentricity": 0.00200316,
        "meta_inclination": 98.8727,
        "meta_ra_of_asc_node": 158.187,
        "meta_arg_of_pericenter": 119.4961,
        "meta_mean_anomaly": 301.9801,
        "meta_ephemeris_type": 0,
        "meta_classification_type": "U",
        "meta_norad_cat_id": 30716,
        "meta_element_set_no": 999,
        "meta_rev_at_epoch": 97668,
        "meta_bstar": 0.0049838014,
        "meta_mean_motion_dot": 0.00036506,
        "meta_mean_motion_ddot": 0,
        "tle_line1": "1 30716U 99025ASA 25336.20187657  .00036506  00000+0  49838-2 0  9990",
        "tle_line2": "2 30716  98.8727 158.1870 0020031 119.4961 301.9801 14.78352656976682"
      },
      "geometry": {
        "type": "Point",
        "coordinates": [
          -69.50441622700131,
          -78.14805452982908
        ]
      }
    },
    {
      "type": "Feature",
      "properties": {
        "norad_id": 30717,
        "name": "FENGYUN 1C DEB",
        "group": "fengyun-1c-debris",
        "lat": 71.19599154578141,
        "lon": 19.330845832330677,
        "alt_km": 845.4505389437672,
        "timestamp": "2025-12-02T13:52:17.540438+00:00",
        "meta_object_name": "FENGYUN 1C DEB",
        "meta_object_id": "1999-025ASB",
        "meta_epoch": "2025-11-30T02:21:23.039712",
        "meta_mean_motion": 14.20428729,
        "meta_eccentricity": 0.00475668,
        "meta_inclination": 99.0182,
        "meta_ra_of_asc_node": 44.6037,
        "meta_arg_of_pericenter": 294.0563,
        "meta_mean_anomaly": 65.5639,
        "meta_ephemeris_type": 0,
        "meta_classification_type": "U",
        "meta_norad_cat_id": 30717,
        "meta_element_set_no": 999,
        "meta_rev_at_epoch": 96357,
        "meta_bstar": 0.0015014558,
        "meta_mean_motion_dot": 3.211e-05,
        "meta_mean_motion_ddot": 0,
        "tle_line1": "1 30717U 99025ASB 25334.09818333  .00003211  00000+0  15015-2 0  9995",
        "tle_line2": "2 30717  99.0182  44.6037 0047566 294.0563  65.5639 14.20428729963573"
      },
      "geometry": {
        "type": "Point",
        "coordinates": [
          19.330845832330677,
          71.19599154578141
        ]
      }
    },
    {
      "type": "Feature",
      "properties": {
        "norad_id": 30718,
        "name": "FENGYUN 1C DEB",
        "group": "fengyun-1c-debris",
        "lat": 4.74749261613805,
        "lon": 56.11366560862285,
        "alt_km": 854.9048748392679,
        "timestamp": "2025-12-02T13:52:17.540461+00:00",
        "meta_object_name": "FENGYUN 1C DEB",
        "meta_object_id": "1999-025ASC",
        "meta_epoch": "2025-12-01T10:52:16.102560",
        "meta_mean_motion": 14.24206178,
        "meta_eccentricity": 0.00577251,
        "meta_inclination": 98.8914,
        "meta_ra_of_asc_node": 55.7207,
        "meta_arg_of_pericenter": 188.0181,
        "meta_mean_anomaly": 172.008,
        "meta_ephemeris_type": 0,
        "meta_classification_type": "U",
        "meta_norad_cat_id": 30718,
        "meta_element_set_no": 999,
        "meta_rev_at_epoch": 96613,
        "meta_bstar": 0.0020862694,
        "meta_mean_motion_dot": 4.85e-05,
        "meta_mean_motion_ddot": 0,
        "tle_line1": "1 30718U 99025ASC 25335.45296415  .00004850  00000+0  20863-2 0  9995",
        "tle_line2": "2 30718  98.8914  55.7207 0057725 188.0181 172.0080 14.24206178966137"
      },
      "geometry": {
        "type": "Point",
        "coordinates": [
          56.11366560862285,
          4.74749261613805
        ]
      }
    },
    {
      "type": "Feature",
      "properties": {
        "norad_id": 30719,
        "name": "FENGYUN 1C DEB",
        "group": "fengyun-1c-debris",
        "lat": -2.3890852397826166,
        "lon": -62.745103673530586,
        "alt_km": 694.1433942276781,
        "timestamp": "2025-12-02T13:52:17.540473+00:00",
        "meta_object_name": "FENGYUN 1C DEB",
        "meta_object_id": "1999-025ASD",
        "meta_epoch": "2025-11-30T08:21:14.488704",
        "meta_mean_motion": 14.58564143,
        "meta_eccentricity": 0.0011942,
        "meta_inclination": 98.8885,
        "meta_ra_of_asc_node": 115.2455,
        "meta_arg_of_pericenter": 227.1926,
        "meta_mean_anomaly": 132.8268,
        "meta_ephemeris_type": 0,
        "meta_classification_type": "U",
        "meta_norad_cat_id": 30719,
        "meta_element_set_no": 999,
        "meta_rev_at_epoch": 97268,
        "meta_bstar": 0.004261104,
        "meta_mean_motion_dot": 0.0001984,
        "meta_mean_motion_ddot": 0,
        "tle_line1": "1 30719U 99025ASD 25334.34808436  .00019840  00000+0  42611-2 0  9995",
        "tle_line2": "2 30719  98.8885 115.2455 0011942 227.1926 132.8268 14.58564143972680"
      },
      "geometry": {
        "type": "Point",
        "coordinates": [
          -62.745103673530586,
          -2.3890852397826166
        ]
      }
    },
    {
      "type": "Feature",
      "properties": {
        "norad_id": 30720,
        "name": "FENGYUN 1C DEB",
        "group": "fengyun-1c-debris",
        "lat": -27.24919852315088,
        "lon": -35.003958782177754,
        "alt_km": 820.8315280080787,
        "timestamp": "2025-12-02T13:52:17.540484+00:00",
        "meta_object_name": "FENGYUN 1C DEB",
        "meta_object_id": "1999-025ASE",
        "meta_epoch": "2025-12-01T10:17:46.773312",
        "meta_mean_motion": 14.2908859,
        "meta_eccentricity": 0.00323724,
        "meta_inclination": 99.0369,
        "meta_ra_of_asc_node": 148.5071,
        "meta_arg_of_pericenter": 2.1711,
        "meta_mean_anomaly": 57.7271,
        "meta_ephemeris_type": 0,
        "meta_classification_type": "U",
        "meta_norad_cat_id": 30720,
        "meta_element_set_no": 999,
        "meta_rev_at_epoch": 97327,
        "meta_bstar": 0.00040425799,
        "meta_mean_motion_dot": 9.83e-06,
        "meta_mean_motion_ddot": 0,
        "tle_line1": "1 30720U 99025ASE 25335.42901358  .00000983  00000+0  40426-3 0  9995",
        "tle_line2": "2 30720  99.0369 148.5071 0032372   2.1711  57.7271 14.29088590973278"
      },
      "geometry": {
        "type": "Point",
        "coordinates": [
          -35.003958782177754,
          -27.24919852315088
        ]
      }
    },
    {
      "type": "Feature",
      "properties": {
        "norad_id": 30721,
        "name": "FENGYUN 1C DEB",
        "group": "fengyun-1c-debris",
        "lat": -27.240605580368054,
        "lon": 111.69704059589836,
        "alt_km": 648.2626596017199,
        "timestamp": "2025-12-02T13:52:17.540494+00:00",
        "meta_object_name": "FENGYUN 1C DEB",
        "meta_object_id": "1999-025ASF",
        "meta_epoch": "2025-12-02T07:45:01.844064",
        "meta_mean_motion": 14.712053,
        "meta_eccentricity": 0.00273104,
        "meta_inclination": 98.7095,
        "meta_ra_of_asc_node": 106.898,
        "meta_arg_of_pericenter": 13.6438,
        "meta_mean_anomaly": 49.0839,
        "meta_ephemeris_type": 0,
        "meta_classification_type": "U",
        "meta_norad_cat_id": 30721,
        "meta_element_set_no": 999,
        "meta_rev_at_epoch": 97689,
        "meta_bstar": 0.0039475304,
        "meta_mean_motion_dot": 0.00024498,
        "meta_mean_motion_ddot": 0,
        "tle_line1": "1 30721U 99025ASF 25336.32293801  .00024498  00000+0  39475-2 0  9991",
        "tle_line2": "2 30721  98.7095 106.8980 0027310  13.6438  49.0839 14.71205300976898"
      },
      "geometry": {
        "type": "Point",
        "coordinates": [
          111.69704059589836,
          -27.240605580368054
        ]
      }
    },
    {
      "type": "Feature",
      "properties": {
        "norad_id": 30723,
        "name": "FENGYUN 1C DEB",
        "group": "fengyun-1c-debris",
        "lat": -53.69233051733979,
        "lon": -129.98600365130739,
        "alt_km": 756.157970380973,
        "timestamp": "2025-12-02T13:52:17.540504+00:00",
        "meta_object_name": "FENGYUN 1C DEB",
        "meta_object_id": "1999-025ASH",
        "meta_epoch": "2025-12-02T04:35:39.037920",
        "meta_mean_motion": 14.41098015,
        "meta_eccentricity": 0.00147271,
        "meta_inclination": 98.8451,
        "meta_ra_of_asc_node": 61.8492,
        "meta_arg_of_pericenter": 293.1753,
        "meta_mean_anomaly": 97.2405,
        "meta_ephemeris_type": 0,
        "meta_classification_type": "U",
        "meta_norad_cat_id": 30723,
        "meta_element_set_no": 999,
        "meta_rev_at_epoch": 97219,
        "meta_bstar": 0.0025041306,
        "meta_mean_motion_dot": 8.037e-05,
        "meta_mean_motion_ddot": 0,
        "tle_line1": "1 30723U 99025ASH 25336.19142405  .00008037  00000+0  25041-2 0  9996",
        "tle_line2": "2 30723  98.8451  61.8492 0014727 293.1753  97.2405 14.41098015972191"
      },
      "geometry": {
        "type": "Point",
        "coordinates": [
          -129.98600365130739,
          -53.69233051733979
        ]
      }
    }
  ]
}